GPS BIIA-23 (PRN 18)    
1 22877U 93068A   18131.07041984 -.00000002  00000-0  00000+0 0  9991
2 22877  54.4029  85.0275 0142717  74.3908 164.0509  2.00565081179809
GPS BIIR-2  (PRN 13)    
1 24876U 97035A   18131.13229860  .00000008  00000-0  00000+0 0  9993
2 24876  55.4916 214.2216 0031946  91.1015 269.3139  2.00565198152408
GPS BIIR-3  (PRN 11)    
1 25933U 99055A   18131.48275410 -.00000050  00000-0  00000+0 0  9990
2 25933  51.8640  63.2899 0165967 100.8513  77.4082  2.00567994136221
GPS BIIR-4  (PRN 20)    
1 26360U 00025A   18131.35269359  .00000089  00000-0  00000+0 0  9996
2 26360  53.1906 141.2003 0040388 112.4044  40.7048  2.00427068131910
GPS BIIR-5  (PRN 28)    
1 26407U 00040A   18131.45562615 -.00000032  00000-0  00000+0 0  9996
2 26407  56.4992 332.3296 0197061 272.8907 273.1847  2.00563465130594
GPS BIIR-6  (PRN 14)    
1 26605U 00071A   18131.43870962  .00000014  00000-0  00000+0 0  9994
2 26605  55.0645 211.8157 0099642 248.4381 188.6517  2.00553349128199
GPS BIIR-8  (PRN 16)    
1 27663U 03005A   18131.33159000 -.00000031  00000-0  00000+0 0  9991
2 27663  56.5641 332.0905 0099291  28.0193 187.5487  2.00569308111958
GPS BIIR-9  (PRN 21)    
1 27704U 03010A   18131.34799545 -.00000004  00000-0  00000+0 0  9998
2 27704  54.0730  84.6143 0246803 270.5528 276.9507  2.00558993110750
GPS BIIR-10 (PRN 22)    
1 28129U 03058A   18130.32403012  .00000084  00000-0  00000+0 0  9997
2 28129  53.0031 144.1072 0076076 271.2718  87.9055  2.00546309105435
GPS BIIR-11 (PRN 19)    
1 28190U 04009A   18131.20988455 -.00000074  00000-0  00000+0 0  9999
2 28190  56.1579  32.9602 0096548  66.8368 209.5941  2.00559444103632
GPS BIIR-12 (PRN 23)    
1 28361U 04023A   18131.43848189  .00000022  00000-0  00000+0 0  9991
2 28361  54.0632 206.5930 0126158 225.0349 134.6772  2.00548351101713
GPS BIIR-13 (PRN 02)    
1 28474U 04045A   18131.44288972 -.00000005  00000-0  00000+0 0  9991
2 28474  54.4428  84.2095 0181242 253.6442 107.9674  2.00556430 99081
GPS BIIRM-1 (PRN 17)    
1 28874U 05038A   18131.21145434 -.00000074  00000-0  00000+0 0  9994
2 28874  56.3007  30.2658 0125816 258.4532  38.5285  2.00577794 92483
GPS BIIRM-2 (PRN 31)    
1 29486U 06042A   18131.42419625 -.00000029  00000-0  00000+0 0  9999
2 29486  55.2013 269.1408 0087852 351.1188  26.3085  2.00565632 85202
GPS BIIRM-3 (PRN 12)    
1 29601U 06052A   18131.34565065 -.00000031  00000-0  00000+0 0  9993
2 29601  56.5396 331.0072 0070044  54.6929 305.9947  2.00573221 84113
GPS BIIRM-4 (PRN 15)    
1 32260U 07047A   18130.66519701  .00000018  00000-0  00000+0 0  9997
2 32260  53.1877 202.6800 0100864  37.7679 323.0003  2.00555920 77487
GPS BIIRM-5 (PRN 29)    
1 32384U 07062A   18131.18380326 -.00000074  00000-0  00000+0 0  9991
2 32384  56.3736  30.8729 0005517  49.8970  98.8832  2.00561239 76229
GPS BIIRM-6 (PRN 07)    
1 32711U 08012A   18131.07605472 -.00000029  00000-0  00000+0 0  9991
2 32711  54.9347 268.4427 0116837 215.7132 143.4795  2.00564199 74402
GPS BIIRM-8 (PRN 05)    
1 35752U 09043A   18130.86846816  .00000091  00000-0  00000+0 0  9997
2 35752  54.3112 146.2245 0052079  32.7697 207.9956  2.00560466 63984
GPS BIIF-1  (PRN 25)    
1 36585U 10022A   18130.64559194 -.00000031  00000-0  00000+0 0  9992
2 36585  55.8325 327.6227 0073078  47.7045 133.9709  2.00566818 58223
GPS BIIF-2  (PRN 01)    
1 37753U 11036A   18131.48518580  .00000005  00000-0  00000+0 0  9993
2 37753  55.6430  87.6905 0075983  34.2755 120.6825  2.00564115 49925
GPS BIIF-3  (PRN 24)    
1 38833U 12053A   18130.75867725 -.00000031  00000-0  00000+0 0  9990
2 38833  53.9644 265.0495 0068142  29.6259 330.7378  2.00566232 40981
GPS BIIF-4  (PRN 27)    
1 39166U 13023A   18131.11391271 -.00000075  00000-0  00000+0 0  9995
2 39166  55.9989  27.1778 0058227  21.4311 338.8437  2.00562966 36528
GPS BIIF-5  (PRN 30)    
1 39533U 14008A   18130.61407037 -.00000030  00000-0  00000+0 0  9990
2 39533  54.1104 270.3996 0033771 186.3793 173.5573  2.00555416 30871
GPS BIIF-6  (PRN 06)    
1 39741U 14026A   18130.89484017  .00000005  00000-0  00000+0 0  9995
2 39741  55.6265  87.2366 0014055 293.0489  66.7809  2.00569745 29169
GPS BIIF-7  (PRN 09)    
1 40105U 14045A   18130.98754410  .00000017  00000-0  00000+0 0  9992
2 40105  54.5889 206.6960 0007553 111.1726 248.9685  2.00568709 27614
GPS BIIF-8  (PRN 03)    
1 40294U 14068A   18131.35499833  .00000096  00000-0  00000+0 0  9990
2 40294  55.0620 147.4426 0012682  14.8378 345.2558  2.00553131 25848
GPS BIIF-9  (PRN 26)    
1 40534U 15013A   18130.99342266 -.00000033  00000-0  00000+0 0  9996
2 40534  54.7749 326.3681 0027795   2.1841 357.8545  2.00565949 22909
GPS BIIF-10  (PRN 08)   
1 40730U 15033A   18131.15936618 -.00000076  00000-0  00000+0 0  9992
2 40730  55.5297  26.6989 0035948 330.9020  28.9308  2.00576836 20666
GPS BIIF-11  (PRN 10)   
1 41019U 15062A   18130.70830703  .00000092  00000-0  00000+0 0  9990
2 41019  55.0674 147.2698 0036063 205.9497 153.9238  2.00564404 18471
GPS BIIF-12  (PRN 32)   
1 41328U 16007A   18131.29436024  .00000021  00000-0  00000+0 0  9998
2 41328  54.8401 206.9635 0022078 217.2386 142.6694  2.00564605 16547
